{"fetched_at":"2026-07-18T06:28:22.345Z","source":"https://celestrak.org/NORAD/elements/gp.php?NAME=PLEIADES&FORMAT=JSON","constellation":"pleiades-neo","records":[{"OBJECT_NAME":"PLEIADES NEO 3","OBJECT_ID":"2021-034A","EPOCH":"2026-07-17T23:31:48.457344","CLASSIFICATION_TYPE":"U","MEAN_MOTION":14.81672522,"ECCENTRICITY":0.00014057,"INCLINATION":97.894,"RA_OF_ASC_NODE":273.3041,"ARG_OF_PERICENTER":95.5246,"MEAN_ANOMALY":264.6127,"EPHEMERIS_TYPE":0,"NORAD_CAT_ID":48268,"ELEMENT_SET_NO":999,"REV_AT_EPOCH":28221,"BSTAR":0.00011146017,"MEAN_MOTION_DOT":0.00000825,"MEAN_MOTION_DDOT":0},{"OBJECT_NAME":"PLEIADES NEO 4","OBJECT_ID":"2021-073E","EPOCH":"2026-07-17T22:43:10.123680","CLASSIFICATION_TYPE":"U","MEAN_MOTION":14.81673015,"ECCENTRICITY":0.00013188,"INCLINATION":97.8939,"RA_OF_ASC_NODE":273.2667,"ARG_OF_PERICENTER":95.0856,"MEAN_ANOMALY":265.0507,"EPHEMERIS_TYPE":0,"NORAD_CAT_ID":49070,"ELEMENT_SET_NO":999,"REV_AT_EPOCH":26592,"BSTAR":0.000001839022,"MEAN_MOTION_DOT":-3.8e-7,"MEAN_MOTION_DDOT":0}]}
